[{"OBJECT_NAME":"NUSAT-41 (C PAYNE-G)","OBJECT_ID":"2023-084N","EPOCH":"2026-03-09T21:55:54.837696","MEAN_MOTION":15.29680045,"ECCENTRICITY":0.00062175,"INCLINATION":97.5351,"RA_OF_ASC_NODE":204.1011,"ARG_OF_PERICENTER":322.2064,"MEAN_ANOMALY":37.8738,"EPHEMERIS_TYPE":0,"CLASSIFICATION_TYPE":"U","NORAD_CAT_ID":56944,"ELEMENT_SET_NO":999,"REV_AT_EPOCH":15260,"BSTAR":0.00059912824,"MEAN_MOTION_DOT":0.0001718,"MEAN_MOTION_DDOT":0},{"OBJECT_NAME":"STARLINK-35596","OBJECT_ID":"2025-236A","EPOCH":"2026-03-09T09:15:44.257824","MEAN_MOTION":15.30199694,"ECCENTRICITY":0.00013216,"INCLINATION":53.1577,"RA_OF_ASC_NODE":105.5998,"ARG_OF_PERICENTER":76.5169,"MEAN_ANOMALY":283.5979,"EPHEMERIS_TYPE":0,"CLASSIFICATION_TYPE":"U","NORAD_CAT_ID":66086,"ELEMENT_SET_NO":999,"REV_AT_EPOCH":2289,"BSTAR":0.00073183761,"MEAN_MOTION_DOT":0.00021378,"MEAN_MOTION_DDOT":0}]
